satname,norad_id,inclination_deg,eccentricity,mean_motion_rev_per_day,perigee_km,apogee_km,l1,l2
STARLINK-1458,45675,53.0532,0.0006602,15.42952662,432.90080270115413,441.90003831118975,1 45675U 20035U   26066.41111556  .00062349  00000+0  13922-2 0  9993,2 45675  53.0532  66.3179 0006602  71.5664 288.6058 15.42952662318508
STARLINK-1460,45676,53.149,0.000122,15.2808685,480.6949447217885,482.36870391492084,1 45676U 20035V   26066.66668981  .00783111  00000+0  26137-1 0  9998,2 45676  53.1490  74.2889 0001220  90.1070  89.6340 15.28086850  5594
STARLINK-1392,45677,53.1571,0.0001143,15.29362574,476.9329893160102,478.50023745202907,1 45677U 20035W   26066.30431814  .00003624  00000+0  13782-3 0  9991,2 45677  53.1571  75.8305 0001143  88.9992 271.1139 15.29362574318397
STARLINK-1394,45679,53.0496,0.0002663,15.49315627,416.9168955468849,420.53690526024,1 45679U 20035Y   26066.35961720  .00127137  00000+0  22561-2 0  9992,2 45679  53.0496  47.7403 0002663 110.1270 250.0024 15.49315627318798
STARLINK-1402,45685,53.0495,8.76e-05,15.44401321,432.541072457102,433.73440779157136,1 45685U 20035AE  26066.32544842  .00104947  00000+0  22146-2 0  9991,2 45685  53.0495  34.6495 0000876 204.5198 155.5766 15.44401321318986
STARLINK-1404,45686,53.1623,0.0001595,15.30180886,474.1790222140944,476.3652597300643,1 45686U 20035AF  26066.27923670  .00005552  00000+0  19956-3 0  9994,2 45686  53.1623  60.8954 0001595 119.9222 240.1938 15.30180886318604
STARLINK-1413,45689,53.1602,0.0001228,15.30193468,474.39297883415475,476.0761668924488,1 45689U 20035AJ  26066.22021757 -.00000753  00000+0 -13302-4 0  9997,2 45689  53.1602  61.0476 0001228  99.5985 260.5155 15.30193468318515
STARLINK-1417,45693,53.052,0.0002111,15.12370893,527.5137739158272,530.4299552784596,1 45693U 20035AN  26066.28515774  .00042323  00000+0  24144-2 0  9996,2 45693  53.0520  65.2061 0002111 229.5110 130.5698 15.12370893318530
STARLINK-1420,45695,53.0539,0.0003996,15.53136803,404.8625566463643,410.2856969789136,1 45695U 20035AQ  26066.66668981  .00111222  00000+0  17267-2 0  9992,2 45695  53.0539  32.1729 0003996  97.3450 168.6821 15.53136803  5917
STARLINK-1422,45696,53.1612,0.0001227,15.301961,474.385806413351,476.0676218688013,1 45696U 20035AR  26066.48885087  .00002485  00000+0  96016-4 0  9992,2 45696  53.1612  59.8041 0001227  98.3690 261.7450 15.30196100318636
STARLINK-1351,45697,53.0527,0.0003458,15.51883706,408.8787048941185,413.57422866774505,1 45697U 20035AS  26066.66668981  .00114042  00000+0  18513-2 0  9992,2 45697  53.0527  31.3630 0003458 115.8558 289.1492 15.51883706  5907
STARLINK-1398,45699,53.0353,0.0004118,15.9394901,288.498016912562,293.99091948977275,1 45699U 20035AU  26066.66668981  .00356548  60625-4  95516-3 0  9996,2 45699  53.0353 309.5693 0004118 174.4002 359.7094 15.93949010  6016
STARLINK-1400,45700,53.052,0.0007795,15.50051337,411.2795610441981,421.87251867333725,1 45700U 20035AV  26066.62514911  .00125842  00000+0  21745-2 0  9997,2 45700  53.0520  32.8702 0007795  85.6093 274.5806 15.50051337319021
STARLINK-1403,45701,53.0928,0.0001813,15.15416203,518.4647119203837,520.9658731616591,1 45701U 20035AW  26066.66668981  .00926862  00000+0  44791-1 0  9995,2 45701  53.0928  45.5550 0001813  83.7372 261.5033 15.15416203  5792
STARLINK-1407,45703,53.0351,0.0011025,15.59274385,382.2943101951387,397.2175140663876,1 45703U 20035AY  26066.66668981  .00175517  00000+0  21457-2 0  9995,2 45703  53.0351 325.6140 0011025  98.3888   5.9551 15.59274385  5933
STARLINK-1411,45706,53.0452,0.0005426,15.61583526,379.41376098578166,386.75103627717635,1 45706U 20035BB  26066.66668981  .00194680  00000+0  21771-2 0  9999,2 45706  53.0452 351.3184 0005426 122.6407 354.7480 15.61583526  5948
STARLINK-1423,45710,53.0511,0.0007449,15.52330408,404.8674963176636,414.9803494805992,1 45710U 20035BF  26066.66668981  .00110123  00000+0  17591-2 0  9999,2 45710  53.0511  31.7583 0007449 100.1333 294.1471 15.52330408  5864
STARLINK-1433,45711,53.0515,0.0007334,15.54394808,398.9384635368151,408.88637362399004,1 45711U 20035BG  26066.55932539  .00129588  00000+0  19150-2 0  9999,2 45711  53.0515  31.3488 0007334  91.7823 268.4027 15.54394808319035
STARLINK-1434,45712,53.0554,0.0005161,15.26497796,482.74878688084846,489.83424999758154,1 45712U 20035BH  26066.60468385  .00072424  00000+0  27239-2 0  9992,2 45712  53.0554  29.6926 0005161  81.0163 279.1419 15.26497796319078
STARLINK-1465,45731,53.0507,0.0002581,15.49584533,416.186484227077,419.69461945933836,1 45731U 20038B   26066.64585576  .00103608  00000+0  18283-2 0  9990,2 45731  53.0507 232.9636 0002581 237.0558 123.0202 15.49584533316062
STARLINK-1471,45735,53.0462,9.14e-05,15.48754411,419.7473862555935,420.99015311029143,1 45735U 20038F   26066.51690732  .00036368  00000+0  67175-3 0  9994,2 45735  53.0462 152.4326 0000914 233.3438 126.7485 15.48754411317193
STARLINK-1480,45741,53.0513,0.0007054,15.47490367,419.2721595090852,428.8687137606894,1 45741U 20038M   26066.59939989  .00040768  00000+0  78478-3 0  9996,2 45741  53.0513 227.2423 0007054 174.0052 186.1041 15.47490367316150
STARLINK-1500,45744,53.0367,0.0002035,15.34646856,460.5776688056703,463.36159220428635,1 45744U 20038Q   26066.59381413  .00040067  00000+0  11812-2 0  9992,2 45744  53.0367 202.5821 0002035 235.6857 124.3951 15.34646856316492
STARLINK-1504,45746,53.0229,9.85e-05,15.53003378,407.29434958979255,408.6312112465348,1 45746U 20038S   26066.49877546  .00045576  00000+0  72140-3 0  9992,2 45746  53.0229 152.7544 0000985 182.5536 177.5468 15.53003378317171
STARLINK-1506,45747,53.0751,0.0002493,15.2604594,485.9348313479186,489.3581109866418,1 45747U 20038T   26066.63008447  .00021282  00000+0  82653-3 0  9993,2 45747  53.0751 211.8924 0002493 218.3693 141.7128 15.26045940316377
STARLINK-1464,45751,53.0516,0.0002799,15.43722201,433.22818629956146,437.0422560889865,1 45751U 20038X   26066.62529053  .00087320  00000+0  18912-2 0  9999,2 45751  53.0516 214.4391 0002799 239.8757 120.1971 15.43722201316330
STARLINK-1477,45754,53.0513,9.41e-05,15.14135493,522.9549241412778,524.2538318686184,1 45754U 20038AA  26066.58723126  .00001364  00000+0  90443-4 0  9999,2 45754  53.0513 222.5176 0000941  30.3017 329.8030 15.14135493316211
STARLINK-1478,45755,53.0512,0.0003481,15.54564221,401.05902116711604,405.78034092846246,1 45755U 20038AB  26066.66668981  .00092561  00000+0  13688-2 0  9999,2 45755  53.0512 207.6675 0003481 227.3064 278.6186 15.54564221  5915
STARLINK-1484,45756,52.998,0.0006413,16.01068334,267.1946490573837,275.72342093186853,1 45756U 20038AC  26066.46208954  .00537025  13936-3  96508-3 0  9996,2 45756  52.9980  68.1207 0006413  57.1140 303.0505 16.01068334318345
STARLINK-1493,45759,53.0531,0.0001503,15.49777298,416.3556328396662,418.398364347644,1 45759U 20038AF  26066.64442222  .00101185  00000+0  17743-2 0  9998,2 45759  53.0531 214.3148 0001503  47.3282 312.7852 15.49777298316329
STARLINK-1494,45760,53.049,0.0004959,15.7324164,346.30315443316704,352.97576312498404,1 45760U 20038AG  26066.52816738  .00121877  00000+0  85813-3 0  9998,2 45760  53.0490 162.3648 0004959 356.1205   3.9774 15.73241640317053
STARLINK-1502,45764,53.0527,0.0001613,15.46702879,425.2815220180373,427.47665890882035,1 45764U 20038AL  26066.61911872  .00092604  00000+0  18101-2 0  9997,2 45764  53.0527 215.9315 0001613  16.2759 343.8299 15.46702879316318
STARLINK-1470,45772,53.0492,8.76e-05,15.27851212,481.63614110620165,482.838078650253,1 45772U 20038AU  26066.51579935  .00057570  00000+0  20856-2 0  9998,2 45772  53.0492 184.4060 0000876  41.0320 319.0744 15.27851212316747
STARLINK-1482,45773,53.1592,0.000113,15.30208697,474.4146760184485,475.96352771747115,1 45773U 20038AV  26066.59092599  .00009123  00000+0  31967-3 0  9990,2 45773  53.1592 200.7655 0001130  92.5271 267.5859 15.30208697316529
STARLINK-1496,45780,53.0517,0.0004049,15.47739933,420.58528266737903,426.09311809444716,1 45780U 20038BC  26066.64051327  .00114311  00000+0  21474-2 0  9995,2 45780  53.0517 187.6225 0004049 214.5557 145.5188 15.47739933316692
STARLINK-1513,45786,53.1628,0.0001387,15.30180876,474.3216029789037,476.22273868289176,1 45786U 20038BJ  26066.60044319 -.00000458  00000+0 -33259-5 0  9995,2 45786  53.1628 200.8572 0001387 104.9703 255.1451 15.30180876316523
STARLINK-1522,46027,53.0643,0.0001166,15.09023493,538.3760216411847,539.989140567498,1 46027U 20055A   26066.56228818 -.00001965  00000+0 -10480-3 0  9999,2 46027  53.0643 136.0693 0001166  81.5787 278.5335 15.09023493308561
STARLINK-1523,46028,53.093,0.0001252,15.16104017,516.7655430671693,518.4922428467671,1 46028U 20055B   26066.66668981  .00123738  00000+0  62549-2 0  9993,2 46028  53.0930 135.4646 0001252  84.9610 117.2162 15.16104017  5752
STARLINK-1526,46029,53.0947,0.0001013,15.16423504,515.9618617649667,517.358747698906,1 46029U 20055C   26066.66668981  .00120339  00000+0  60313-2 0  9995,2 46029  53.0947 135.4372 0001013  91.1092 166.1787 15.16423504  5757
STARLINK-1555,46032,53.0911,0.0001162,15.1510349,519.8627504138813,521.4660318571805,1 46032U 20055F   26066.66668981  .01101081  00000+0  53635-1 0  9991,2 46032  53.0911 135.5075 0001162  92.4801 205.5980 15.15103490  5795
STARLINK-1556,46033,53.0957,0.0001679,15.16128544,516.3967358286918,518.7123090419263,1 46033U 20055G   26066.66668981  .01081954  00000+0  51276-1 0  9997,2 46033  53.0957 135.4559 0001679  57.1610   9.7589 15.16128544  5798
STARLINK-1557,46034,53.0995,0.0001744,15.16985365,513.7555806687242,516.159892112777,1 46034U 20055H   26066.66668981  .01048806  00000+0  48631-1 0  9998,2 46034  53.0995 135.4029 0001744  60.5466  15.5930 15.16985365  5790
STARLINK-1558,46035,53.091,7.27e-05,15.15109253,520.1453556184915,521.1484387971468,1 46035U 20055J   26066.66668981  .01226811  00000+0  59191-1 0  9996,2 46035  53.0910 135.5268 0000727  75.6620 252.0753 15.15109253  5742
